[{"OBJECT_NAME":"OBJECT D","OBJECT_ID":"2022-023D","EPOCH":"2026-03-09T23:24:15.634080","MEAN_MOTION":15.18234448,"ECCENTRICITY":0.01133038,"INCLINATION":63.4606,"RA_OF_ASC_NODE":248.8448,"ARG_OF_PERICENTER":353.4959,"MEAN_ANOMALY":6.4675,"EPHEMERIS_TYPE":0,"CLASSIFICATION_TYPE":"U","NORAD_CAT_ID":51949,"ELEMENT_SET_NO":999,"REV_AT_EPOCH":22265,"BSTAR":0.0002367106,"MEAN_MOTION_DOT":5.513e-5,"MEAN_MOTION_DDOT":0},{"OBJECT_NAME":"STARLINK-6337","OBJECT_ID":"2023-065AB","EPOCH":"2026-03-09T10:49:07.296960","MEAN_MOTION":15.02530456,"ECCENTRICITY":0.00021863,"INCLINATION":43.0053,"RA_OF_ASC_NODE":211.2226,"ARG_OF_PERICENTER":283.0999,"MEAN_ANOMALY":76.96,"EPHEMERIS_TYPE":0,"CLASSIFICATION_TYPE":"U","NORAD_CAT_ID":56528,"ELEMENT_SET_NO":999,"REV_AT_EPOCH":15659,"BSTAR":-2.760731e-5,"MEAN_MOTION_DOT":-5.77e-6,"MEAN_MOTION_DDOT":0}]
